<?xml version="1.0" encoding="UTF-8"?><kml xmlns="http://www.opengis.net/kml/2.2" xmlns:gx="http://www.google.com/kml/ext/2.2" xmlns:kml="http://www.opengis.net/kml/2.2" xmlns:atom="http://www.w3.org/2005/Atom">
<Document>
<name>02026-GÜNEYKENT-HALKKENT ŞBK TS_2025-04-04-23-49-47</name>
<open>0</open>
<Folder>
<name>02026-GÜNEYKENT-HALKKENT ŞBK TS_2025-04-04-23-49-47</name>
<open>1</open>
<Folder>
<name>Point</name>
<open>1</open>
<Placemark>
<name>TGG494-1</name>
<Point>
<coordinates>34.62889675689418,36.8544713982929,106.97452680021524</coordinates>
</Point>
</Placemark>
<Placemark>
<name>TGG494-2</name>
<Point>
<coordinates>34.6289426979983,36.854457442531846,107.037200124003</coordinates>
</Point>
</Placemark>
<Placemark>
<name>TGG494-3</name>
<Point>
<coordinates>34.628933070568785,36.85443336451385,107.13340119645</coordinates>
</Point>
</Placemark>
<Placemark>
<name>TGG494-4</name>
<Point>
<coordinates>34.62888727803139,36.854445735538526,107.15561288502067</coordinates>
</Point>
</Placemark>
<Placemark>
<name>1</name>
<Point>
<coordinates>34.629089310843945,36.85422486328367,26.74378204345703</coordinates>
</Point>
</Placemark>
<Placemark>
<name>2</name>
<Point>
<coordinates>34.629256854336624,36.854221749977945,26.742494583129883</coordinates>
</Point>
</Placemark>
<Placemark>
<name>3</name>
<Point>
<coordinates>34.629967280162155,36.854270217620424,26.73770523071289</coordinates>
</Point>
</Placemark>
<Placemark>
<name>4</name>
<Point>
<coordinates>34.63000443174767,36.85377206843063,102.43956533633173</coordinates>
</Point>
</Placemark>
<Placemark>
<name>5</name>
<Point>
<coordinates>34.63007452724193,36.85355919480478,103.96794364601374</coordinates>
</Point>
</Placemark>
<Placemark>
<name>6</name>
<Point>
<coordinates>34.63002672660837,36.8534808414713,105.33248141780496</coordinates>
</Point>
</Placemark>
<Placemark>
<name>7</name>
<Point>
<coordinates>34.62986221126765,36.85319014009878,109.18725540768355</coordinates>
</Point>
</Placemark>
<Placemark>
<name>8</name>
<Point>
<coordinates>34.63018885299516,36.85278907782547,109.60749556683004</coordinates>
</Point>
</Placemark>
<Placemark>
<name>9</name>
<Point>
<coordinates>34.63040160303681,36.85240905651063,108.88097791094333</coordinates>
</Point>
</Placemark>
<Placemark>
<name>m1</name>
<Point>
<coordinates>34.630294095582485,36.852434689407765,109.07150051463395</coordinates>
</Point>
</Placemark>
<Placemark>
<name>m2</name>
<Point>
<coordinates>34.63044644601988,36.85229277985444,108.93739985860884</coordinates>
</Point>
</Placemark>
<Placemark>
<name>m3</name>
<Point>
<coordinates>34.63062284223112,36.85211769457927,108.32165188807994</coordinates>
</Point>
</Placemark>
<Placemark>
<name>10</name>
<Point>
<coordinates>34.63068971495058,36.85208569305658,26.70861244108528</coordinates>
</Point>
</Placemark>
<Placemark>
<name>11</name>
<Point>
<coordinates>34.63038838868479,36.85186611827806,107.83774829190224</coordinates>
</Point>
</Placemark>
<Placemark>
<name>12</name>
<Point>
<coordinates>34.630468086601795,36.85177804263319,107.65972337499261</coordinates>
</Point>
</Placemark>
<Placemark>
<name>A1</name>
<Point>
<coordinates>34.6303157719562,36.85169228092777,107.90831627883017</coordinates>
</Point>
</Placemark>
<Placemark>
<name>SDK1</name>
<Point>
<coordinates>34.63053584396282,36.85168785873638,107.70262874942273</coordinates>
</Point>
</Placemark>
<Placemark>
<name>A2</name>
<Point>
<coordinates>34.63054832580693,36.851685366430985,107.70240206364542</coordinates>
</Point>
</Placemark>
<Placemark>
<name>A3</name>
<Point>
<coordinates>34.63089876801181,36.85154652317891,107.20977851562202</coordinates>
</Point>
</Placemark>
<Placemark>
<name>A4</name>
<Point>
<coordinates>34.63123494363273,36.851370220159374,106.61306707840413</coordinates>
</Point>
</Placemark>
<Placemark>
<name>A5</name>
<Point>
<coordinates>34.63152881719117,36.85116382301126,105.67060836963356</coordinates>
</Point>
</Placemark>
<Placemark>
<name>m4</name>
<Point>
<coordinates>34.63190962501468,36.851366599797984,108.6009958833456</coordinates>
</Point>
</Placemark>
<Placemark>
<name>m5</name>
<Point>
<coordinates>34.632038411426926,36.8508864371289,108.59631516318768</coordinates>
</Point>
</Placemark>
<Placemark>
<name>m6</name>
<Point>
<coordinates>34.62989145095492,36.850350748747836,112.9430888183415</coordinates>
</Point>
</Placemark>
<Placemark>
<name>A6</name>
<Point>
<coordinates>34.630383906192115,36.850280703179926,110.56126696243882</coordinates>
</Point>
</Placemark>
<Placemark>
<name>A7</name>
<Point>
<coordinates>34.6301365457582,36.8505431074651,111.92099300771952</coordinates>
</Point>
</Placemark>
<Placemark>
<name>A8</name>
<Point>
<coordinates>34.62991679536343,36.85080153924914,113.11368009541184</coordinates>
</Point>
</Placemark>
<Placemark>
<name>A9</name>
<Point>
<coordinates>34.62966646607174,36.851068774276364,114.29276483971626</coordinates>
</Point>
</Placemark>
<Placemark>
<name>A10</name>
<Point>
<coordinates>34.62965750439686,36.85127459706828,113.28126459755003</coordinates>
</Point>
</Placemark>
<Placemark>
<name>A11</name>
<Point>
<coordinates>34.62998800576488,36.85148143089083,109.62786638829857</coordinates>
</Point>
</Placemark>
<Placemark>
<name>A12</name>
<Point>
<coordinates>34.63016869068261,36.8515169879655,107.65674041211605</coordinates>
</Point>
</Placemark>
<Placemark>
<name>A13</name>
<Point>
<coordinates>34.630389550462006,36.85125304465734,106.93172386847436</coordinates>
</Point>
</Placemark>
<Placemark>
<name>A14</name>
<Point>
<coordinates>34.630609069058785,36.85098969082114,106.49619812145829</coordinates>
</Point>
</Placemark>
<Placemark>
<name>A15</name>
<Point>
<coordinates>34.63142959839061,36.849692725314306,104.391391874291</coordinates>
</Point>
</Placemark>
<Placemark>
<name>A16</name>
<Point>
<coordinates>34.631208101520215,36.849953128457116,104.40552517492324</coordinates>
</Point>
</Placemark>
<Placemark>
<name>A17</name>
<Point>
<coordinates>34.63104853247163,36.850242439830666,104.9763216143474</coordinates>
</Point>
</Placemark>
<Placemark>
<name>A18</name>
<Point>
<coordinates>34.630900382817494,36.85054750295381,105.83186519984156</coordinates>
</Point>
</Placemark>
<Placemark>
<name>A19</name>
<Point>
<coordinates>34.63109211718016,36.85081655926684,105.2090681605041</coordinates>
</Point>
</Placemark>
<Placemark>
<name>A20</name>
<Point>
<coordinates>34.63144839750328,36.85094319788768,104.81718658749014</coordinates>
</Point>
</Placemark>
<Placemark>
<name>A21</name>
<Point>
<coordinates>34.63164804410558,36.85095982830853,105.16369380615652</coordinates>
</Point>
</Placemark>
<Placemark>
<name>A22</name>
<Point>
<coordinates>34.63170885449589,36.850647221271366,104.72343858331442</coordinates>
</Point>
</Placemark>
<Placemark>
<name>A23</name>
<Point>
<coordinates>34.63177605928875,36.85033532078175,104.62641566619277</coordinates>
</Point>
</Placemark>
<Placemark>
<name>A24</name>
<Point>
<coordinates>34.6318223339785,36.85003563661525,104.48184448294342</coordinates>
</Point>
</Placemark>
<Placemark>
<name>m7</name>
<Point>
<coordinates>34.63236565512054,36.84963822826707,102.34921825677156</coordinates>
</Point>
</Placemark>
<Placemark>
<name>A25</name>
<Point>
<coordinates>34.63183403523717,36.84962935577216,104.29957202542573</coordinates>
</Point>
</Placemark>
<Placemark>
<name>A26</name>
<Point>
<coordinates>34.632143946137816,36.84963416666646,103.8318968033418</coordinates>
</Point>
</Placemark>
<Placemark>
<name>A27</name>
<Point>
<coordinates>34.6323823629967,36.849309852789126,101.90481083467603</coordinates>
</Point>
</Placemark>
<Placemark>
<name>A28</name>
<Point>
<coordinates>34.632523263853265,36.84895664792211,99.7776505863294</coordinates>
</Point>
</Placemark>
<Placemark>
<name>m8</name>
<Point>
<coordinates>34.63296935404163,36.84902282762848,101.89819493610412</coordinates>
</Point>
</Placemark>
<Placemark>
<name>SDK2</name>
<Point>
<coordinates>34.63298486972665,36.84902376241344,101.91223819926381</coordinates>
</Point>
</Placemark>
<Placemark>
<name>A29</name>
<Point>
<coordinates>34.63284878202932,36.84900018125649,100.96374320238829</coordinates>
</Point>
</Placemark>
<Placemark>
<name>A30</name>
<Point>
<coordinates>34.63252607046036,36.84866024952818,98.50953924097121</coordinates>
</Point>
</Placemark>
<Placemark>
<name>A31</name>
<Point>
<coordinates>34.63250291711637,36.84834345992721,98.4436327200383</coordinates>
</Point>
</Placemark>
<Placemark>
<name>A32</name>
<Point>
<coordinates>34.6315811505414,36.84947288069688,104.75643837824464</coordinates>
</Point>
</Placemark>
<Placemark>
<name>SDK3</name>
<Point>
<coordinates>34.63157544766673,36.849466258349885,104.67157274391502</coordinates>
</Point>
</Placemark>
<Placemark>
<name>SDK4</name>
<Point>
<coordinates>34.63131504544675,36.84923513447756,104.911760462448</coordinates>
</Point>
</Placemark>
<Placemark>
<name>A33</name>
<Point>
<coordinates>34.63131820124374,36.84924027573338,104.86273637134582</coordinates>
</Point>
</Placemark>
<Placemark>
<name>A34</name>
<Point>
<coordinates>34.63114600196275,36.849509818368254,105.92422672174871</coordinates>
</Point>
</Placemark>
<Placemark>
<name>A35</name>
<Point>
<coordinates>34.630898439348066,36.84976880413821,107.63723294623196</coordinates>
</Point>
</Placemark>
<Placemark>
<name>A36</name>
<Point>
<coordinates>34.63065640958046,36.85001936958665,109.34156870376319</coordinates>
</Point>
</Placemark>
<Placemark>
<name>m9</name>
<Point>
<coordinates>34.63041028126814,36.85006996458046,110.05915391165763</coordinates>
</Point>
</Placemark>
<Placemark>
<name>m10</name>
<Point>
<coordinates>34.63038425498873,36.84969031500357,110.31361036468297</coordinates>
</Point>
</Placemark>
<Placemark>
<name>m11</name>
<Point>
<coordinates>34.63068024479741,36.849491810431914,109.12424102984369</coordinates>
</Point>
</Placemark>
<Placemark>
<name>m12</name>
<Point>
<coordinates>34.63080090182333,36.849185676353834,108.03310298547149</coordinates>
</Point>
</Placemark>
<Placemark>
<name>Y1</name>
<Point>
<coordinates>34.63060542161856,36.848889003625054,106.7594797713682</coordinates>
</Point>
</Placemark>
<Placemark>
<name>m13</name>
<Point>
<coordinates>34.63050469546282,36.84871347141918,107.17871899623424</coordinates>
</Point>
</Placemark>
<Placemark>
<name>A37</name>
<Point>
<coordinates>34.6312076768753,36.84892616945766,104.86333516892046</coordinates>
</Point>
</Placemark>
<Placemark>
<name>SDK5</name>
<Point>
<coordinates>34.63116874294999,36.8488144021847,104.96949768532068</coordinates>
</Point>
</Placemark>
<Placemark>
<name>A38</name>
<Point>
<coordinates>34.63113068078278,36.848634070586954,105.07860566489398</coordinates>
</Point>
</Placemark>
<Placemark>
<name>A39</name>
<Point>
<coordinates>34.630986704671145,36.848433468829604,105.44267196487635</coordinates>
</Point>
</Placemark>
<Placemark>
<name>m14</name>
<Point>
<coordinates>34.63113189051766,36.84833204764721,105.26755938306451</coordinates>
</Point>
</Placemark>
<Placemark>
<name>m15</name>
<Point>
<coordinates>34.6314074196253,36.848281992566484,104.49505263846368</coordinates>
</Point>
</Placemark>
<Placemark>
<name>Y2</name>
<Point>
<coordinates>34.6316017909067,36.847794803952524,103.2068433612585</coordinates>
</Point>
</Placemark>
<Placemark>
<name>m16</name>
<Point>
<coordinates>34.631657748975535,36.84745863240312,102.43010227475315</coordinates>
</Point>
</Placemark>
<Placemark>
<name>m17</name>
<Point>
<coordinates>34.63206925758648,36.8473389899844,101.22977082617581</coordinates>
</Point>
</Placemark>
<Placemark>
<name>A40</name>
<Point>
<coordinates>34.62936918447427,36.851081982618226,115.37819892074913</coordinates>
</Point>
</Placemark>
<Placemark>
<name>A41</name>
<Point>
<coordinates>34.629068110248184,36.8508785269762,116.18695246893913</coordinates>
</Point>
</Placemark>
<Placemark>
<name>Y3</name>
<Point>
<coordinates>34.62869526230577,36.851093179961524,117.89523903280497</coordinates>
</Point>
</Placemark>
<Placemark>
<name>A42</name>
<Point>
<coordinates>34.62875384333176,36.85066873051933,116.36959962826222</coordinates>
</Point>
</Placemark>
<Placemark>
<name>A43</name>
<Point>
<coordinates>34.628458505050325,36.8504717030753,115.8919970644638</coordinates>
</Point>
</Placemark>
<Placemark>
<name>A44</name>
<Point>
<coordinates>34.62878068274568,36.85037715914382,115.28950900863856</coordinates>
</Point>
</Placemark>
<Placemark>
<name>A46</name>
<Point>
<coordinates>34.629284219178636,36.849843148291875,112.69395340047777</coordinates>
</Point>
</Placemark>
<Placemark>
<name>A45</name>
<Point>
<coordinates>34.62903275156406,36.850107026796394,113.93867118377239</coordinates>
</Point>
</Placemark>
<Placemark>
<name>A47</name>
<Point>
<coordinates>34.628160599351496,36.8502636429641,115.2351606534794</coordinates>
</Point>
</Placemark>
<Placemark>
<name>A48</name>
<Point>
<coordinates>34.62783129663583,36.8500999756197,115.0536028323695</coordinates>
</Point>
</Placemark>
<Placemark>
<name>A49</name>
<Point>
<coordinates>34.62778125559209,36.85025428644775,116.00929141696543</coordinates>
</Point>
</Placemark>
<Placemark>
<name>A50</name>
<Point>
<coordinates>34.62756868292328,36.850480722905004,116.79773423448205</coordinates>
</Point>
</Placemark>
<Placemark>
<name>A51</name>
<Point>
<coordinates>34.627348003399725,36.85068692991655,117.27953786868602</coordinates>
</Point>
</Placemark>
<Placemark>
<name>A52</name>
<Point>
<coordinates>34.62711198095035,36.85088276332334,117.77455097530037</coordinates>
</Point>
</Placemark>
<Placemark>
<name>m18</name>
<Point>
<coordinates>34.627195305259825,36.8509773066377,118.13363703154027</coordinates>
</Point>
</Placemark>
<Placemark>
<name>A53</name>
<Point>
<coordinates>34.62778706516382,36.84978662447356,114.05177404452115</coordinates>
</Point>
</Placemark>
<Placemark>
<name>Y4</name>
<Point>
<coordinates>34.627927605402846,36.84951603765669,113.09278087131679</coordinates>
</Point>
</Placemark>
<Placemark>
<name>A54</name>
<Point>
<coordinates>34.62755742830975,36.84969512990255,114.342196428217</coordinates>
</Point>
</Placemark>
<Placemark>
<name>A55</name>
<Point>
<coordinates>34.62718515841757,36.849778036387896,115.48291942663491</coordinates>
</Point>
</Placemark>
<Placemark>
<name>Y5</name>
<Point>
<coordinates>34.62714333199357,36.84992659183138,116.69491940177977</coordinates>
</Point>
</Placemark>
<Placemark>
<name>A56</name>
<Point>
<coordinates>34.62681888650857,36.84985622981623,116.75435616914183</coordinates>
</Point>
</Placemark>
<Placemark>
<name>A57</name>
<Point>
<coordinates>34.626408770555244,36.84995327288088,118.33276922721416</coordinates>
</Point>
</Placemark>
<Placemark>
<name>A58</name>
<Point>
<coordinates>34.62603559233715,36.85005789721369,119.49667809065431</coordinates>
</Point>
</Placemark>
<Placemark>
<name>A59</name>
<Point>
<coordinates>34.62788375580384,36.84857445395819,109.64236609544605</coordinates>
</Point>
</Placemark>
<Placemark>
<name>A60</name>
<Point>
<coordinates>34.62795205145061,36.848256567634195,108.83790897205472</coordinates>
</Point>
</Placemark>
<Placemark>
<name>A61</name>
<Point>
<coordinates>34.6282050080154,36.84801397420012,108.08080906700343</coordinates>
</Point>
</Placemark>
<Placemark>
<name>A62</name>
<Point>
<coordinates>34.627924461577734,36.847783233471816,109.81542176473886</coordinates>
</Point>
</Placemark>
<Placemark>
<name>A63</name>
<Point>
<coordinates>34.62758154058419,36.84761930502739,112.74484756961465</coordinates>
</Point>
</Placemark>
<Placemark>
<name>A64</name>
<Point>
<coordinates>34.62727988423938,36.847475031564244,114.04465786088258</coordinates>
</Point>
</Placemark>
<Placemark>
<name>A65</name>
<Point>
<coordinates>34.626924744132495,36.84716092057209,113.87647159118205</coordinates>
</Point>
</Placemark>
<Placemark>
<name>A66</name>
<Point>
<coordinates>34.626913233507125,36.84685451012053,113.3226871592924</coordinates>
</Point>
</Placemark>
<Placemark>
<name>m19</name>
<Point>
<coordinates>34.62741105183597,36.84677870033191,112.72187999729067</coordinates>
</Point>
</Placemark>
<Placemark>
<name>A67</name>
<Point>
<coordinates>34.62689680770871,36.846536444100785,112.80189471133053</coordinates>
</Point>
</Placemark>
<Placemark>
<name>A68</name>
<Point>
<coordinates>34.626887199662974,36.84622664042299,111.52228594291955</coordinates>
</Point>
</Placemark>
<Placemark>
<name>A69</name>
<Point>
<coordinates>34.626914973391386,36.84752785342492,114.46868497133255</coordinates>
</Point>
</Placemark>
<Placemark>
<name>A70</name>
<Point>
<coordinates>34.62674983595493,36.84779746228996,115.2954675341025</coordinates>
</Point>
</Placemark>
<Placemark>
<name>m20</name>
<Point>
<coordinates>34.62662146404153,36.84776026927705,115.37382846977562</coordinates>
</Point>
</Placemark>
<Placemark>
<name>m21</name>
<Point>
<coordinates>34.62671611627534,36.84787064025987,115.6984993238002</coordinates>
</Point>
</Placemark>
<Placemark>
<name>A71</name>
<Point>
<coordinates>34.62654981463767,36.8478618895573,115.31892600096762</coordinates>
</Point>
</Placemark>
<Placemark>
<name>A72</name>
<Point>
<coordinates>34.6261086278335,36.84775605772622,113.6147529501468</coordinates>
</Point>
</Placemark>
<Placemark>
<name>SDK6</name>
<Point>
<coordinates>34.626117861661434,36.84775541769362,113.6318886866793</coordinates>
</Point>
</Placemark>
<Placemark>
<name>A73</name>
<Point>
<coordinates>34.625729799796346,36.8477329929058,111.98653456196189</coordinates>
</Point>
</Placemark>
<Placemark>
<name>A74</name>
<Point>
<coordinates>34.62655501040793,36.84778453459522,115.18240876682103</coordinates>
</Point>
</Placemark>
<Placemark>
<name>m22</name>
<Point>
<coordinates>34.626105822126824,36.84739862724636,113.75636053830385</coordinates>
</Point>
</Placemark>
<Placemark>
<name>m23</name>
<Point>
<coordinates>34.62651383499629,36.84720590867993,114.80338737182319</coordinates>
</Point>
</Placemark>
<Placemark>
<name>m24</name>
<Point>
<coordinates>34.62640991491364,36.84684023839583,112.86866845469922</coordinates>
</Point>
</Placemark>
<Placemark>
<name>m25</name>
<Point>
<coordinates>34.62674792650674,36.84821677874356,116.03699897788465</coordinates>
</Point>
</Placemark>
<Placemark>
<name>m26</name>
<Point>
<coordinates>34.62625089572601,36.84826728280497,117.70710558164865</coordinates>
</Point>
</Placemark>
<Placemark>
<name>m27</name>
<Point>
<coordinates>34.628958186787386,36.84678167501708,105.51236901339144</coordinates>
</Point>
</Placemark>
<Placemark>
<name>A75</name>
<Point>
<coordinates>34.62901100875943,36.84695914109822,105.71532587520778</coordinates>
</Point>
</Placemark>
<Placemark>
<name>m28</name>
<Point>
<coordinates>34.62827991623669,36.84673567029572,111.58309324737638</coordinates>
</Point>
</Placemark>
<Placemark>
<name>A76</name>
<Point>
<coordinates>34.62879985647803,36.84723556195741,106.31388057116419</coordinates>
</Point>
</Placemark>
<Placemark>
<name>A77</name>
<Point>
<coordinates>34.62858745998267,36.84751099816247,106.79037529975176</coordinates>
</Point>
</Placemark>
<Placemark>
<name>A78</name>
<Point>
<coordinates>34.62837741260131,36.84778850602484,107.41641783900559</coordinates>
</Point>
</Placemark>
<Placemark>
<name>m29</name>
<Point>
<coordinates>34.62815759056254,36.8473279249078,111.43857125658542</coordinates>
</Point>
</Placemark>
<Placemark>
<name>SDK7</name>
<Point>
<coordinates>34.62824480600611,36.84770582457261,107.6672980999574</coordinates>
</Point>
</Placemark>
<Placemark>
<name>m30</name>
<Point>
<coordinates>34.62948712521597,36.84699763605282,104.22723963018507</coordinates>
</Point>
</Placemark>
<Placemark>
<name>m31</name>
<Point>
<coordinates>34.630040503512554,36.846868262505865,103.30432419385761</coordinates>
</Point>
</Placemark>
<Placemark>
<name>m32</name>
<Point>
<coordinates>34.63030979130782,36.84701651989619,103.53299025259912</coordinates>
</Point>
</Placemark>
<Placemark>
<name>Y6</name>
<Point>
<coordinates>34.63031084699117,36.84701517410769,26.65634727384895</coordinates>
</Point>
</Placemark>
<Placemark>
<name>m33</name>
<Point>
<coordinates>34.63060485113098,36.84716820515639,103.30753187369555</coordinates>
</Point>
</Placemark>
<Placemark>
<name>SDK8</name>
<Point>
<coordinates>34.630246733479716,36.84735620178704,104.02534932550043</coordinates>
</Point>
</Placemark>
<Placemark>
<name>Y7</name>
<Point>
<coordinates>34.63001319018764,36.84741894427913,105.09894815366715</coordinates>
</Point>
</Placemark>
<Placemark>
<name>Y8</name>
<Point>
<coordinates>34.63042540712708,36.847676261292385,104.97548867296427</coordinates>
</Point>
</Placemark>
<Placemark>
<name>m34</name>
<Point>
<coordinates>34.630488506093094,36.84793839643136,106.08819266594946</coordinates>
</Point>
</Placemark>
<Placemark>
<name>m35</name>
<Point>
<coordinates>34.631666300000106,36.844812972774335,95.3543904563412</coordinates>
</Point>
</Placemark>
<Placemark>
<name>Y9</name>
<Point>
<coordinates>34.631673954380794,36.84503982193632,94.61905336752534</coordinates>
</Point>
</Placemark>
<Placemark>
<name>m36</name>
<Point>
<coordinates>34.632401660264996,36.84541179172323,95.33236273378134</coordinates>
</Point>
</Placemark>
<Placemark>
<name>m37</name>
<Point>
<coordinates>34.632540633947755,36.846104099420906,96.74006925709546</coordinates>
</Point>
</Placemark>
<Placemark>
<name>m38</name>
<Point>
<coordinates>34.63222856679315,36.84491610540486,93.87969799991697</coordinates>
</Point>
</Placemark>
<Placemark>
<name>Y10</name>
<Point>
<coordinates>34.63236991000568,36.844616678428075,91.6490889210254</coordinates>
</Point>
</Placemark>
<Placemark>
<name>m39</name>
<Point>
<coordinates>34.6319135329199,36.84446406032336,93.71276376023889</coordinates>
</Point>
</Placemark>
<Placemark>
<name>Y11</name>
<Point>
<coordinates>34.632028268903916,36.84375903648152,92.74716296512634</coordinates>
</Point>
</Placemark>
<Placemark>
<name>TR7</name>
<Point>
<coordinates>34.6306812876966,36.84316614772367,26.61195755098015</coordinates>
</Point>
</Placemark>
<Placemark>
<name>m40</name>
<Point>
<coordinates>34.63046523956536,36.84330156647064,98.03194215055555</coordinates>
</Point>
</Placemark>
<Placemark>
<name>m41(93/3.5)</name>
<Point>
<coordinates>34.631083829044194,36.84318209828374,96.31582206767052</coordinates>
</Point>
</Placemark>
<Placemark>
<name>Y12</name>
<Point>
<coordinates>34.631070175045934,36.843184334742645,96.30498502869159</coordinates>
</Point>
</Placemark>
<Placemark>
<name>m41</name>
<Point>
<coordinates>34.63088035266777,36.84304899998001,96.70864482782781</coordinates>
</Point>
</Placemark>
<Placemark>
<name>Y13p</name>
<Point>
<coordinates>34.630855089147545,36.84252901697419,95.0969348764047</coordinates>
</Point>
</Placemark>
<Placemark>
<name>Y14</name>
<Point>
<coordinates>34.63171721223375,36.842762989119144,94.54290717002004</coordinates>
</Point>
</Placemark>
<Placemark>
<name>m42</name>
<Point>
<coordinates>34.63208008878628,36.84288403020053,91.88795916549861</coordinates>
</Point>
</Placemark>
<Placemark>
<name>m43</name>
<Point>
<coordinates>34.631242631693105,36.843455259959896,95.63890569843352</coordinates>
</Point>
</Placemark>
<Placemark>
<name>Y15</name>
<Point>
<coordinates>34.63122546527609,36.84345330790498,95.61170982848853</coordinates>
</Point>
</Placemark>
<Placemark>
<name>Y16</name>
<Point>
<coordinates>34.62949118829314,36.84429436338954,101.93496735952795</coordinates>
</Point>
</Placemark>
<Placemark>
<name>m44</name>
<Point>
<coordinates>34.62910512387075,36.844100902555724,102.5794336469844</coordinates>
</Point>
</Placemark>
<Placemark>
<name>m45</name>
<Point>
<coordinates>34.62879272341027,36.84397319610247,101.3897940646857</coordinates>
</Point>
</Placemark>
<Placemark>
<name>Y17</name>
<Point>
<coordinates>34.62756686991756,36.84349218093461,98.24454153701663</coordinates>
</Point>
</Placemark>
<Placemark>
<name>m46</name>
<Point>
<coordinates>34.62892613825703,36.84374724829432,101.68397203274071</coordinates>
</Point>
</Placemark>
<Placemark>
<name>m47</name>
<Point>
<coordinates>34.6291657158189,36.84385182287626,102.30615828372538</coordinates>
</Point>
</Placemark>
<Placemark>
<name>m48</name>
<Point>
<coordinates>34.62985197164266,36.843790558783105,100.06481858436018</coordinates>
</Point>
</Placemark>
<Placemark>
<name>m49</name>
<Point>
<coordinates>34.6274437865622,36.84225745987926,95.74342360533774</coordinates>
</Point>
</Placemark>
<Placemark>
<name>Y18</name>
<Point>
<coordinates>34.627486503296446,36.84212736421992,95.1043693413958</coordinates>
</Point>
</Placemark>
<Placemark>
<name>m50</name>
<Point>
<coordinates>34.62779633547482,36.842009354591326,94.82369516883045</coordinates>
</Point>
</Placemark>
<Placemark>
<name>Y19</name>
<Point>
<coordinates>34.62798424527387,36.84234976415713,94.32913267239928</coordinates>
</Point>
</Placemark>
<Placemark>
<name>Y20</name>
<Point>
<coordinates>34.62829158390081,36.842461772983164,93.55182880163193</coordinates>
</Point>
</Placemark>
<Placemark>
<name>Y21</name>
<Point>
<coordinates>34.62876665764818,36.84308495237994,95.91598307527602</coordinates>
</Point>
</Placemark>
<Placemark>
<name>TR9</name>
<Point>
<coordinates>34.62664455953817,36.84463391409883,26.656360626220703</coordinates>
</Point>
</Placemark>
<Placemark>
<name>m51</name>
<Point>
<coordinates>34.62659654574805,36.84468696056378,102.43448198772967</coordinates>
</Point>
</Placemark>
<Placemark>
<name>A79</name>
<Point>
<coordinates>34.62670320277416,36.844530823838056,101.59773786645383</coordinates>
</Point>
</Placemark>
<Placemark>
<name>A80</name>
<Point>
<coordinates>34.626718200875594,36.84421461849667,100.83632460143417</coordinates>
</Point>
</Placemark>
<Placemark>
<name>m52</name>
<Point>
<coordinates>34.627089428581236,36.84409838971311,100.11212765797973</coordinates>
</Point>
</Placemark>
<Placemark>
<name>A81</name>
<Point>
<coordinates>34.62680047746532,36.843905851932654,99.84621990658343</coordinates>
</Point>
</Placemark>
<Placemark>
<name>A82</name>
<Point>
<coordinates>34.62688153667858,36.84362222493297,98.84837118908763</coordinates>
</Point>
</Placemark>
<Placemark>
<name>SDK9</name>
<Point>
<coordinates>34.62681244449086,36.844892146825636,103.23962756246328</coordinates>
</Point>
</Placemark>
<Placemark>
<name>A83</name>
<Point>
<coordinates>34.6268192789094,36.84500997077966,103.9087307844311</coordinates>
</Point>
</Placemark>
<Placemark>
<name>A84</name>
<Point>
<coordinates>34.62683188518697,36.84532611218772,105.95172922872007</coordinates>
</Point>
</Placemark>
<Placemark>
<name>m53</name>
<Point>
<coordinates>34.62638936699909,36.84536536710247,104.629265232943</coordinates>
</Point>
</Placemark>
<Placemark>
<name>m54</name>
<Point>
<coordinates>34.62713734100147,36.84529604946432,108.5494782179594</coordinates>
</Point>
</Placemark>
<Placemark>
<name>A85</name>
<Point>
<coordinates>34.626851850182284,36.84564227171808,108.0352753084153</coordinates>
</Point>
</Placemark>
<Placemark>
<name>A86</name>
<Point>
<coordinates>34.62686888172888,36.84595693294615,109.92589933611453</coordinates>
</Point>
</Placemark>
<Placemark>
<name>A87</name>
<Point>
<coordinates>34.626674837923076,36.84603925262282,110.29575688112527</coordinates>
</Point>
</Placemark>
<Placemark>
<name>SDK10</name>
<Point>
<coordinates>34.626445458500456,36.846038794733616,109.51779997255653</coordinates>
</Point>
</Placemark>
<Placemark>
<name>A88</name>
<Point>
<coordinates>34.626244231357674,36.846036035823175,108.50066342484206</coordinates>
</Point>
</Placemark>
<Placemark>
<name>A89</name>
<Point>
<coordinates>34.62583233963431,36.846026480587035,104.3834840413183</coordinates>
</Point>
</Placemark>
<Placemark>
<name>m55</name>
<Point>
<coordinates>34.6265147794991,36.846525221409095,112.54112525377423</coordinates>
</Point>
</Placemark>
<Placemark>
<name>m56</name>
<Point>
<coordinates>34.62645127622892,36.84599344759868,109.62542735878378</coordinates>
</Point>
</Placemark>
<Placemark>
<name>Y13</name>
<Point>
<coordinates>34.62640884635489,36.846197705548335,111.48261247109622</coordinates>
</Point>
</Placemark>
<Placemark>
<name>m57</name>
<Point>
<coordinates>34.62810789867691,36.84508643483101,107.45978233125061</coordinates>
</Point>
</Placemark>
</Folder>
</Folder>
</Document>
</kml>
